OBJECT_NAME,OBJECT_ID,EPOCH,MEAN_MOTION,ECCENTRICITY,INCLINATION,RA_OF_ASC_NODE,ARG_OF_PERICENTER,MEAN_ANOMALY,EPHEMERIS_TYPE,CLASSIFICATION_TYPE,NORAD_CAT_ID,ELEMENT_SET_NO,REV_AT_EPOCH,BSTAR,MEAN_MOTION_DOT,MEAN_MOTION_DDOT
STARLINK-30824,2023-167B,2024-08-16T01:48:43.546464,15.02533859,5.58e-05,43.003,6.2028,267.6859,92.392,0,U,58176,999,4512,0.00026068,3.319e-05,0
STARLINK-30791,2023-167C,2024-08-16T02:12:41.131872,15.02540662,0.0001238,43.0068,6.3108,277.5161,82.5541,0,U,58177,999,4512,7.1514e-05,7.63e-06,0
STARLINK-30810,2023-167D,2024-08-16T19:12:18.156096,15.02540158,6.55e-05,43.001,3.0215,218.1828,141.8968,0,U,58178,999,4517,8.6525e-05,9.66e-06,0
STARLINK-30819,2023-167E,2024-08-16T19:07:31.529280,15.02532875,0.0002107,43.0051,2.9989,275.7194,84.3408,0,U,58179,999,4522,4.073e-05,3.46e-06,0
STARLINK-30806,2023-167F,2024-08-16T17:26:59.023392,15.02559894,0.000259,43.0047,3.3344,267.1377,92.9169,0,U,58180,999,4516,0.0013432,0.00017999,0
STARLINK-30821,2023-167G,2024-08-16T16:29:27.847104,15.02514591,3.4e-05,43.0031,3.0345,278.2072,81.8732,0,U,58181,999,4516,0.00014448,1.748e-05,0
STARLINK-30778,2023-167H,2024-08-16T16:24:38.026080,15.02552444,0.0003544,43.0091,3.0066,278.0627,81.9813,0,U,58182,999,4516,0.00036712,4.761e-05,0
STARLINK-30809,2023-167J,2024-08-16T18:57:55.187712,15.02541308,0.000159,43.0077,2.9471,264.9489,95.1172,0,U,58183,999,4517,0.00012993,1.552e-05,0
STARLINK-30801,2023-167K,2024-08-16T18:53:07.456704,15.02552802,0.0002228,43.0057,2.9187,257.8906,102.1687,0,U,58184,999,4517,0.00049832,6.537e-05,0
STARLINK-30793,2023-167L,2024-08-16T01:58:18.598944,15.02573344,0.0001683,43.0038,6.2356,264.2093,95.8557,0,U,58185,999,4512,0.0011295,0.00015102,0
STARLINK-30755,2023-167M,2024-08-16T18:40:21.171648,15.0255444,0.0001304,43.0001,2.855,84.7646,275.3345,0,U,58186,999,4517,0.001158,0.00015481,0
STARLINK-30760,2023-167N,2024-08-16T16:15:04.862304,15.02550255,8.97e-05,43.0054,2.9571,269.3273,90.7467,0,U,58187,999,4521,-0.00020676,-2.996e-05,0
STARLINK-30826,2023-167P,2024-08-16T02:41:28.038048,15.02548368,9.37e-05,43.0008,6.4582,268.0525,92.021,0,U,58188,999,4512,0.00053128,6.983e-05,0
STARLINK-30796,2023-167Q,2024-08-16T02:46:16.453344,15.02543516,0.0001202,43.0049,6.4834,257.3902,102.6806,0,U,58189,999,4512,0.00054549,7.174e-05,0
STARLINK-30820,2023-167R,2024-08-16T02:51:04.161024,15.02531051,6.65e-05,43.0016,6.5035,130.7782,229.3118,0,U,58190,999,4512,0.00041726,5.437e-05,0
STARLINK-30785,2023-167S,2024-08-16T02:31:54.031872,15.02557223,0.0001055,43.0007,6.4086,247.6705,112.4026,0,U,58191,999,4512,0.0010315,0.00013765,0
STARLINK-30807,2023-167T,2024-08-16T18:33:56.219904,15.02544959,7.75e-05,43.0001,2.8189,235.8957,124.1812,0,U,58192,999,4522,0.00014572,1.766e-05,0
STARLINK-30822,2023-167U,2024-08-16T02:27:04.780224,15.02529354,0.0001168,43.0002,6.3813,252.7788,107.2926,0,U,58193,999,4512,0.00027619,3.529e-05,0
STARLINK-30830,2023-167V,2024-08-16T18:17:56.306400,15.02540899,1.74e-05,43.0015,2.7121,124.8155,235.2704,0,U,58194,999,4522,6.875e-05,7.26e-06,0
STARLINK-30827,2023-167W,2024-08-16T18:14:46.329216,15.02547456,0.0001975,43.0054,2.7202,249.7783,110.2847,0,U,58195,999,4511,0.00031787,4.094e-05,0
STARLINK-30798,2023-167X,2024-08-16T01:44:04.755264,15.02579357,0.0003325,43.0019,7.0141,266.8041,93.2421,0,U,58196,999,4511,0.0011955,0.00016002,0
STARLINK-30762,2023-167Y,2024-08-16T18:19:33.086496,15.02560351,0.0002745,43.0036,2.7444,255.8515,104.2022,0,U,58197,999,4517,-0.00057332,-7.945e-05,0
TIANHUI 5A,2023-168A,2024-08-16T17:57:23.858784,14.87577682,0.0001882,97.8223,235.7464,81.7535,32.7197,0,U,58199,999,4307,0.00027763,2.468e-05,0
TIANHUI 5B,2023-168C,2024-08-16T16:25:42.971232,14.87574944,0.0001859,97.8227,235.6804,98.9129,34.8195,0,U,58201,999,4306,0.00014144,1.23e-05,0
TJS-10,2023-169A,2024-08-16T16:59:52.999584,1.00271827,0.0002938,0.8039,88.3392,103.1888,201.8238,0,U,58204,999,296,0,2e-08,0
SZ-17 MODULE,2023-164C,2024-08-16T18:59:39.916608,15.71347423,0.0010122,41.4752,70.2622,311.5407,48.4567,0,U,59624,999,1705,0.00060635,0.00080192,0
NOOR-3,2023-150A,2024-08-16T17:45:28.696608,16.48040955,0.000837,59.982,125.7538,244.9042,115.1228,0,U,57962,999,5051,0.00023542,0.15553402,1.0478e-05
