NOOR-3                  
1 57962U 23150A   24229.73991547  .15553402  10478-4  23542-3 0  9992
2 57962  59.9820 125.7538 0008370 244.9042 115.1228 16.48040955 50511
STARLINK-30824          
1 58176U 23167B   24229.07550401  .00003319  00000+0  26068-3 0  9997
2 58176  43.0030   6.2028 0000558 267.6859  92.3920 15.02533859 45126
STARLINK-30791          
1 58177U 23167C   24229.09214273  .00000763  00000+0  71514-4 0  9991
2 58177  43.0068   6.3108 0001238 277.5161  82.5541 15.02540662 45120
STARLINK-30810          
1 58178U 23167D   24229.80021014  .00000966  00000+0  86525-4 0  9993
2 58178  43.0010   3.0215 0000655 218.1828 141.8968 15.02540158 45171
STARLINK-30819          
1 58179U 23167E   24229.79689270  .00000346  00000+0  40730-4 0  9996
2 58179  43.0051   2.9989 0002107 275.7194  84.3408 15.02532875 45225
STARLINK-30806          
1 58180U 23167F   24229.72707203  .00017999  00000+0  13432-2 0  9997
2 58180  43.0047   3.3344 0002590 267.1377  92.9169 15.02559894 45168
STARLINK-30821          
1 58181U 23167G   24229.68712786  .00001748  00000+0  14448-3 0  9999
2 58181  43.0031   3.0345 0000340 278.2072  81.8732 15.02514591 45164
STARLINK-30778          
1 58182U 23167H   24229.68377345  .00004761  00000+0  36712-3 0  9994
2 58182  43.0091   3.0066 0003544 278.0627  81.9813 15.02552444 45164
STARLINK-30809          
1 58183U 23167J   24229.79022208  .00001552  00000+0  12993-3 0  9992
2 58183  43.0077   2.9471 0001590 264.9489  95.1172 15.02541308 45179
STARLINK-30801          
1 58184U 23167K   24229.78689186  .00006537  00000+0  49832-3 0  9996
2 58184  43.0057   2.9187 0002228 257.8906 102.1687 15.02552802 45177
STARLINK-30793          
1 58185U 23167L   24229.08215971  .00015102  00000+0  11295-2 0  9996
2 58185  43.0038   6.2356 0001683 264.2093  95.8557 15.02573344 45128
STARLINK-30755          
1 58186U 23167M   24229.77802282  .00015481  00000+0  11580-2 0  9997
2 58186  43.0001   2.8550 0001304  84.7646 275.3345 15.02554440 45177
STARLINK-30760          
1 58187U 23167N   24229.67713961 -.00002996  00000+0 -20676-3 0  9998
2 58187  43.0054   2.9571 0000897 269.3273  90.7467 15.02550255 45212
STARLINK-30826          
1 58188U 23167P   24229.11213007  .00006983  00000+0  53128-3 0  9990
2 58188  43.0008   6.4582 0000937 268.0525  92.0210 15.02548368 45127
STARLINK-30796          
1 58189U 23167Q   24229.11546821  .00007174  00000+0  54549-3 0  9995
2 58189  43.0049   6.4834 0001202 257.3902 102.6806 15.02543516 45128
STARLINK-30820          
1 58190U 23167R   24229.11879816  .00005437  00000+0  41726-3 0  9993
2 58190  43.0016   6.5035 0000665 130.7782 229.3118 15.02531051 45124
STARLINK-30785          
1 58191U 23167S   24229.10548648  .00013765  00000+0  10315-2 0  9991
2 58191  43.0007   6.4086 0001055 247.6705 112.4026 15.02557223 45126
STARLINK-30807          
1 58192U 23167T   24229.77356736  .00001766  00000+0  14572-3 0  9998
2 58192  43.0001   2.8189 0000775 235.8957 124.1812 15.02544959 45227
STARLINK-30822          
1 58193U 23167U   24229.10213866  .00003529  00000+0  27619-3 0  9997
2 58193  43.0002   6.3813 0001168 252.7788 107.2926 15.02529354 45128
STARLINK-30830          
1 58194U 23167V   24229.76245725  .00000726  00000+0  68750-4 0  9997
2 58194  43.0015   2.7121 0000174 124.8155 235.2704 15.02540899 45222
STARLINK-30827          
1 58195U 23167W   24229.76025844  .00004094  00000+0  31787-3 0  9997
2 58195  43.0054   2.7202 0001975 249.7783 110.2847 15.02547456 45114
STARLINK-30798          
1 58196U 23167X   24229.07227726  .00016002  00000+0  11955-2 0  9991
2 58196  43.0019   7.0141 0003325 266.8041  93.2421 15.02579357 45117
STARLINK-30762          
1 58197U 23167Y   24229.76357739 -.00007945  00000+0 -57332-3 0  9994
2 58197  43.0036   2.7444 0002745 255.8515 104.2022 15.02560351 45174
TIANHUI 5A              
1 58199U 23168A   24229.74819281  .00002468  00000+0  27763-3 0  9998
2 58199  97.8223 235.7464 0001882  81.7535  32.7197 14.87577682 43072
TIANHUI 5B              
1 58201U 23168C   24229.68452513  .00001230  00000+0  14144-3 0  9991
2 58201  97.8227 235.6804 0001859  98.9129  34.8195 14.87574944 43068
TJS-10                  
1 58204U 23169A   24229.70825231  .00000002  00000+0  00000+0 0  9997
2 58204   0.8039  88.3392 0002938 103.1888 201.8238  1.00271827  2964
SZ-17 MODULE            
1 59624U 23164C   24229.79143422  .00080192  00000+0  60635-3 0  9995
2 59624  41.4752  70.2622 0010122 311.5407  48.4567 15.71347423 17051
